{
  "type": "FeatureCollection",
  "features": [
    {
      "type": "Feature",
      "properties": {
        "norad_id": 41866,
        "name": "GOES 16",
        "group": "weather",
        "lat": 0.05875017106770624,
        "lon": -154.0791632226338,
        "alt_km": 35779.60987543935,
        "timestamp": "2025-12-21T14:40:47.553142+00:00",
        "meta_object_name": "GOES 16",
        "meta_object_id": "2016-071A",
        "meta_epoch": "2025-12-21T04:08:23.703648",
        "meta_mean_motion": 1.0027209,
        "meta_eccentricity": 0.00030272,
        "meta_inclination": 0.076,
        "meta_ra_of_asc_node": 101.7906,
        "meta_arg_of_pericenter": 164.256,
        "meta_mean_anomaly": 141.3798,
        "meta_ephemeris_type": 0,
        "meta_classification_type": "U",
        "meta_norad_cat_id": 41866,
        "meta_element_set_no": 999,
        "meta_rev_at_epoch": 3331,
        "meta_bstar": 0,
        "meta_mean_motion_dot": -6.8e-07,
        "meta_mean_motion_ddot": 0,
        "tle_line1": "1 41866U 16071A   25355.17249657 -.00000068  00000+0  00000+0 0  9994",
        "tle_line2": "2 41866   0.0760 101.7906 0003027 164.2560 141.3798  1.00272090 33314"
      },
      "geometry": {
        "type": "Point",
        "coordinates": [
          -154.0791632226338,
          0.05875017106770624
        ]
      }
    },
    {
      "type": "Feature",
      "properties": {
        "norad_id": 41882,
        "name": "FENGYUN 4A",
        "group": "weather",
        "lat": -0.23537988775569849,
        "lon": 74.30536556517265,
        "alt_km": 35804.536124461665,
        "timestamp": "2025-12-21T14:40:47.553157+00:00",
        "meta_object_name": "FENGYUN 4A",
        "meta_object_id": "2016-077A",
        "meta_epoch": "2025-12-19T13:51:06.687072",
        "meta_mean_motion": 1.00266581,
        "meta_eccentricity": 0.0004506,
        "meta_inclination": 1.866,
        "meta_ra_of_asc_node": 82.3247,
        "meta_arg_of_pericenter": 142.8816,
        "meta_mean_anomaly": 194.7423,
        "meta_ephemeris_type": 0,
        "meta_classification_type": "U",
        "meta_norad_cat_id": 41882,
        "meta_element_set_no": 999,
        "meta_rev_at_epoch": 3312,
        "meta_bstar": 0,
        "meta_mean_motion_dot": -3.34e-06,
        "meta_mean_motion_ddot": 0,
        "tle_line1": "1 41882U 16077A   25353.57716073 -.00000334  00000+0  00000+0 0  9997",
        "tle_line2": "2 41882   1.8660  82.3247 0004506 142.8816 194.7423  1.00266581 33125"
      },
      "geometry": {
        "type": "Point",
        "coordinates": [
          74.30536556517265,
          -0.23537988775569849
        ]
      }
    },
    {
      "type": "Feature",
      "properties": {
        "norad_id": 41884,
        "name": "CYGFM05",
        "group": "weather",
        "lat": -11.63713507490006,
        "lon": -173.69218996550617,
        "alt_km": 419.4204065841832,
        "timestamp": "2025-12-21T14:40:47.553170+00:00",
        "meta_object_name": "CYGFM05",
        "meta_object_id": "2016-078A",
        "meta_epoch": "2025-12-21T02:58:55.174080",
        "meta_mean_motion": 15.47924637,
        "meta_eccentricity": 0.001082,
        "meta_inclination": 34.9605,
        "meta_ra_of_asc_node": 352.3496,
        "meta_arg_of_pericenter": 256.6713,
        "meta_mean_anomaly": 103.2803,
        "meta_ephemeris_type": 0,
        "meta_classification_type": "U",
        "meta_norad_cat_id": 41884,
        "meta_element_set_no": 999,
        "meta_rev_at_epoch": 50106,
        "meta_bstar": 0.00026404734,
        "meta_mean_motion_dot": 0.00014198,
        "meta_mean_motion_ddot": 0,
        "tle_line1": "1 41884U 16078A   25355.12424970  .00014198  00000+0  26405-3 0  9998",
        "tle_line2": "2 41884  34.9605 352.3496 0010820 256.6713 103.2803 15.47924637501064"
      },
      "geometry": {
        "type": "Point",
        "coordinates": [
          -173.69218996550617,
          -11.63713507490006
        ]
      }
    },
    {
      "type": "Feature",
      "properties": {
        "norad_id": 41885,
        "name": "CYGFM04",
        "group": "weather",
        "lat": 6.796919584832511,
        "lon": 133.85143813778018,
        "alt_km": 415.64755718421566,
        "timestamp": "2025-12-21T14:40:47.553181+00:00",
        "meta_object_name": "CYGFM04",
        "meta_object_id": "2016-078B",
        "meta_epoch": "2025-12-21T06:13:58.550016",
        "meta_mean_motion": 15.5069736,
        "meta_eccentricity": 0.00096598,
        "meta_inclination": 34.9356,
        "meta_ra_of_asc_node": 325.9931,
        "meta_arg_of_pericenter": 282.3589,
        "meta_mean_anomaly": 77.6052,
        "meta_ephemeris_type": 0,
        "meta_classification_type": "U",
        "meta_norad_cat_id": 41885,
        "meta_element_set_no": 999,
        "meta_rev_at_epoch": 50126,
        "meta_bstar": 0.00032179169,
        "meta_mean_motion_dot": 0.00019104,
        "meta_mean_motion_ddot": 0,
        "tle_line1": "1 41885U 16078B   25355.25970544  .00019104  00000+0  32179-3 0  9993",
        "tle_line2": "2 41885  34.9356 325.9931 0009659 282.3589  77.6052 15.50697360501269"
      },
      "geometry": {
        "type": "Point",
        "coordinates": [
          133.85143813778018,
          6.796919584832511
        ]
      }
    },
    {
      "type": "Feature",
      "properties": {
        "norad_id": 41886,
        "name": "CYGFM02",
        "group": "weather",
        "lat": -24.18986568340015,
        "lon": -178.06767687474,
        "alt_km": 408.19457763503215,
        "timestamp": "2025-12-21T14:40:47.553191+00:00",
        "meta_object_name": "CYGFM02",
        "meta_object_id": "2016-078C",
        "meta_epoch": "2025-12-21T05:59:35.634336",
        "meta_mean_motion": 15.5210181,
        "meta_eccentricity": 0.00113315,
        "meta_inclination": 34.9445,
        "meta_ra_of_asc_node": 324.2734,
        "meta_arg_of_pericenter": 283.009,
        "meta_mean_anomaly": 76.9368,
        "meta_ephemeris_type": 0,
        "meta_classification_type": "U",
        "meta_norad_cat_id": 41886,
        "meta_element_set_no": 999,
        "meta_rev_at_epoch": 50139,
        "meta_bstar": 0.00033207589,
        "meta_mean_motion_dot": 0.00020757,
        "meta_mean_motion_ddot": 0,
        "tle_line1": "1 41886U 16078C   25355.24971799  .00020757  00000+0  33208-3 0  9996",
        "tle_line2": "2 41886  34.9445 324.2734 0011331 283.0090  76.9368 15.52101810501395"
      },
      "geometry": {
        "type": "Point",
        "coordinates": [
          -178.06767687474,
          -24.18986568340015
        ]
      }
    },
    {
      "type": "Feature",
      "properties": {
        "norad_id": 41887,
        "name": "CYGFM01",
        "group": "weather",
        "lat": -34.68264005213408,
        "lon": -106.2305947135106,
        "alt_km": 416.08254933098306,
        "timestamp": "2025-12-21T14:40:47.553202+00:00",
        "meta_object_name": "CYGFM01",
        "meta_object_id": "2016-078D",
        "meta_epoch": "2025-12-21T07:21:27.055296",
        "meta_mean_motion": 15.48520939,
        "meta_eccentricity": 0.00105173,
        "meta_inclination": 34.9439,
        "meta_ra_of_asc_node": 353.447,
        "meta_arg_of_pericenter": 250.6841,
        "meta_mean_anomaly": 109.2744,
        "meta_ephemeris_type": 0,
        "meta_classification_type": "U",
        "meta_norad_cat_id": 41887,
        "meta_element_set_no": 999,
        "meta_rev_at_epoch": 50103,
        "meta_bstar": 0.00030906839,
        "meta_mean_motion_dot": 0.00016984,
        "meta_mean_motion_ddot": 0,
        "tle_line1": "1 41887U 16078D   25355.30656314  .00016984  00000+0  30907-3 0  9997",
        "tle_line2": "2 41887  34.9439 353.4470 0010517 250.6841 109.2744 15.48520939501030"
      },
      "geometry": {
        "type": "Point",
        "coordinates": [
          -106.2305947135106,
          -34.68264005213408
        ]
      }
    },
    {
      "type": "Feature",
      "properties": {
        "norad_id": 41888,
        "name": "CYGFM08",
        "group": "weather",
        "lat": -5.070668702723979,
        "lon": -32.961501998023444,
        "alt_km": 414.8573880451586,
        "timestamp": "2025-12-21T14:40:47.553213+00:00",
        "meta_object_name": "CYGFM08",
        "meta_object_id": "2016-078E",
        "meta_epoch": "2025-12-21T06:59:16.414944",
        "meta_mean_motion": 15.49748097,
        "meta_eccentricity": 0.00119421,
        "meta_inclination": 34.9467,
        "meta_ra_of_asc_node": 336.439,
        "meta_arg_of_pericenter": 273.0676,
        "meta_mean_anomaly": 86.868,
        "meta_ephemeris_type": 0,
        "meta_classification_type": "U",
        "meta_norad_cat_id": 41888,
        "meta_element_set_no": 999,
        "meta_rev_at_epoch": 50126,
        "meta_bstar": 0.00032361688,
        "meta_mean_motion_dot": 0.00018591,
        "meta_mean_motion_ddot": 0,
        "tle_line1": "1 41888U 16078E   25355.29116221  .00018591  00000+0  32362-3 0  9997",
        "tle_line2": "2 41888  34.9467 336.4390 0011942 273.0676  86.8680 15.49748097501264"
      },
      "geometry": {
        "type": "Point",
        "coordinates": [
          -32.961501998023444,
          -5.070668702723979
        ]
      }
    }
  ]
}